start=new Date('2021-12-14T00:00:00.000Z').valueOf();
sats=[{"INCLINATION":"53.0557","APOAPSIS":"548.020","PERIAPSIS":"546.449","CLASSIFICATION_TYPE":"U","SITE":"AFETR","EPOCH":"2021-12-13T12:49:57.399168","MEAN_MOTION_DOT":"0.00000950","ECCENTRICITY":"0.00011340","PERIOD":"95.593","ELEMENT_SET_NO":"999","TIME_SYSTEM":"UTC","GP_ID":"191622741","OBJECT_ID":"2020-057AM","TLE_LINE1":"1 46152U 20057AM  21347.53469212  .00000950  00000-0  82640-4 0  9999","COUNTRY_CODE":"US","OBJECT_NAME":"STARLINK-1634","MEAN_MOTION_DDOT":"0.0000000000000","MEAN_ELEMENT_THEORY":"SGP4","MEAN_ANOMALY":"286.5894","RA_OF_ASC_NODE":"62.0683","ARG_OF_PERICENTER":"73.5219","EPHEMERIS_TYPE":"0","BSTAR":"0.00008264000000","MEAN_MOTION":"15.06393172","TLE_LINE2":"2 46152  53.0557  62.0683 0001134  73.5219 286.5894 15.06393172 72879","OBJECT_TYPE":"PAYLOAD","REV_AT_EPOCH":"7287","RCS_SIZE":"LARGE","LAUNCH_DATE":"2020-08-18","REF_FRAME":"TEME","SEMIMAJOR_AXIS":"6925.369","FILE":"3238998","CENTER_NAME":"EARTH","NORAD_CAT_ID":"46152","DECAY_DATE":null},{"SITE":"AFETR","INCLINATION":"53.0561","PERIAPSIS":"546.142","APOAPSIS":"548.244","CLASSIFICATION_TYPE":"U","ECCENTRICITY":"0.00015170","PERIOD":"95.592","EPOCH":"2021-12-13T13:40:22.804032","MEAN_MOTION_DOT":"-0.00000719","TIME_SYSTEM":"UTC","OBJECT_ID":"2020-057AN","GP_ID":"191658108","TLE_LINE1":"1 46153U 20057AN  21347.56970838 -.00000719  00000-0 -29400-4 0  9994","COUNTRY_CODE":"US","ELEMENT_SET_NO":"999","RA_OF_ASC_NODE":"41.9170","ARG_OF_PERICENTER":"64.8972","EPHEMERIS_TYPE":"0","MEAN_MOTION_DDOT":"0.0000000000000","OBJECT_NAME":"STARLINK-1636","MEAN_ELEMENT_THEORY":"SGP4","MEAN_ANOMALY":"295.2174","MEAN_MOTION":"15.06406702","TLE_LINE2":"2 46153  53.0561  41.9170 0001517  64.8972 295.2174 15.06406702 73150","OBJECT_TYPE":"PAYLOAD","REV_AT_EPOCH":"7315","RCS_SIZE":"LARGE","BSTAR":"-0.00002940000000","FILE":"3239585","LAUNCH_DATE":"2020-08-18","REF_FRAME":"TEME","SEMIMAJOR_AXIS":"6925.328","DECAY_DATE":null,"CENTER_NAME":"EARTH","NORAD_CAT_ID":"46153"},{"BSTAR":"-0.00001182000000","RCS_SIZE":"LARGE","REV_AT_EPOCH":"7307","MEAN_MOTION":"15.06398451","OBJECT_TYPE":"PAYLOAD","TLE_LINE2":"2 46154  53.0562  50.3807 0001437  69.6843 290.4300 15.06398451 73074","MEAN_ANOMALY":"290.4300","MEAN_ELEMENT_THEORY":"SGP4","OBJECT_NAME":"STARLINK-1642","MEAN_MOTION_DDOT":"0.0000000000000","ARG_OF_PERICENTER":"69.6843","RA_OF_ASC_NODE":"50.3807","EPHEMERIS_TYPE":"0","NORAD_CAT_ID":"46154","CENTER_NAME":"EARTH","DECAY_DATE":null,"SEMIMAJOR_AXIS":"6925.353","LAUNCH_DATE":"2020-08-18","REF_FRAME":"TEME","FILE":"3239585","PERIAPSIS":"546.223","APOAPSIS":"548.213","CLASSIFICATION_TYPE":"U","INCLINATION":"53.0562","SITE":"AFETR","ELEMENT_SET_NO":"999","TLE_LINE1":"1 46154U 20057AP  21347.91158279 -.00000458  00000-0 -11820-4 0  9998","COUNTRY_CODE":"US","TIME_SYSTEM":"UTC","OBJECT_ID":"2020-057AP","GP_ID":"191659361","EPOCH":"2021-12-13T21:52:40.753056","MEAN_MOTION_DOT":"-0.00000458","PERIOD":"95.592","ECCENTRICITY":"0.00014370"},{"MEAN_MOTION_DOT":"-0.00000814","EPOCH":"2021-12-13T19:17:25.717632","PERIOD":"95.593","ECCENTRICITY":"0.00015590","ELEMENT_SET_NO":"999","COUNTRY_CODE":"US","TLE_LINE1":"1 46155U 20057AQ  21347.80376988 -.00000814  00000-0 -35744-4 0  9993","OBJECT_ID":"2020-057AQ","GP_ID":"191657107","TIME_SYSTEM":"UTC","CLASSIFICATION_TYPE":"U","PERIAPSIS":"546.167","APOAPSIS":"548.326","INCLINATION":"53.0547","SITE":"AFETR","SEMIMAJOR_AXIS":"6925.382","REF_FRAME":"TEME","LAUNCH_DATE":"2020-08-18","FILE":"3239585","NORAD_CAT_ID":"46155","CENTER_NAME":"EARTH","DECAY_DATE":null,"MEAN_ANOMALY":"302.6050","MEAN_ELEMENT_THEORY":"SGP4","MEAN_MOTION_DDOT":"0.0000000000000","OBJECT_NAME":"STARLINK-1667","EPHEMERIS_TYPE":"0","RA_OF_ASC_NODE":"20.8584","ARG_OF_PERICENTER":"57.5089","BSTAR":"-0.00003574400000","RCS_SIZE":"LARGE","REV_AT_EPOCH":"7471","OBJECT_TYPE":"PAYLOAD","TLE_LINE2":"2 46155  53.0547  20.8584 0001559  57.5089 302.6050 15.06389240 74711","MEAN_MOTION":"15.06389240"},{"ECCENTRICITY":"0.00013100","PERIOD":"95.593","MEAN_MOTION_DOT":"-0.00000733","EPOCH":"2021-12-13T20:39:41.982912","GP_ID":"191657859","OBJECT_ID":"2020-057AR","TIME_SYSTEM":"UTC","COUNTRY_CODE":"US","TLE_LINE1":"1 46156U 20057AR  21347.86090258 -.00000733  00000-0 -30362-4 0  9994","ELEMENT_SET_NO":"999","SITE":"AFETR","INCLINATION":"53.0547","CLASSIFICATION_TYPE":"U","PERIAPSIS":"546.344","APOAPSIS":"548.158","FILE":"3239585","REF_FRAME":"TEME","LAUNCH_DATE":"2020-08-18","SEMIMAJOR_AXIS":"6925.386","DECAY_DATE":null,"CENTER_NAME":"EARTH","NORAD_CAT_ID":"46156","EPHEMERIS_TYPE":"0","ARG_OF_PERICENTER":"66.7760","RA_OF_ASC_NODE":"40.6026","OBJECT_NAME":"STARLINK-1545","MEAN_MOTION_DDOT":"0.0000000000000","MEAN_ELEMENT_THEORY":"SGP4","MEAN_ANOMALY":"293.3367","OBJECT_TYPE":"PAYLOAD","TLE_LINE2":"2 46156  53.0547  40.6026 0001310  66.7760 293.3367 15.06387796 74458","MEAN_MOTION":"15.06387796","REV_AT_EPOCH":"7445","RCS_SIZE":"LARGE","BSTAR":"-0.00003036200000"},{"ELEMENT_SET_NO":"999","COUNTRY_CODE":"US","TLE_LINE1":"1 46157U 20057AS  21347.51626763  .00001227  00000-0  10122-3 0  9991","OBJECT_ID":"2020-057AS","GP_ID":"191631281","TIME_SYSTEM":"UTC","MEAN_MOTION_DOT":"0.00001227","EPOCH":"2021-12-13T12:23:25.523232","PERIOD":"95.592","ECCENTRICITY":"0.00015610","CLASSIFICATION_TYPE":"U","APOAPSIS":"548.289","PERIAPSIS":"546.127","INCLINATION":"53.0563","SITE":"AFETR","NORAD_CAT_ID":"46157","CENTER_NAME":"EARTH","DECAY_DATE":null,"SEMIMAJOR_AXIS":"6925.343","REF_FRAME":"TEME","LAUNCH_DATE":"2020-08-18","FILE":"3239279","BSTAR":"0.00010122000000","REV_AT_EPOCH":"7409","RCS_SIZE":"LARGE","OBJECT_TYPE":"PAYLOAD","TLE_LINE2":"2 46157  53.0563  22.1434 0001561  55.9529 304.1608 15.06401926 74097","MEAN_MOTION":"15.06401926","MEAN_ANOMALY":"304.1608","MEAN_ELEMENT_THEORY":"SGP4","MEAN_MOTION_DDOT":"0.0000000000000","OBJECT_NAME":"STARLINK-1587","EPHEMERIS_TYPE":"0","ARG_OF_PERICENTER":"55.9529","RA_OF_ASC_NODE":"22.1434"},{"NORAD_CAT_ID":"46158","CENTER_NAME":"EARTH","DECAY_DATE":null,"SEMIMAJOR_AXIS":"6925.371","REF_FRAME":"TEME","LAUNCH_DATE":"2020-08-18","FILE":"3238998","BSTAR":"0.00007024100000","REV_AT_EPOCH":"7469","RCS_SIZE":"LARGE","OBJECT_TYPE":"PAYLOAD","TLE_LINE2":"2 46158  53.0558  22.1700 0001599  67.1290 292.9867 15.06392768 74699","MEAN_MOTION":"15.06392768","MEAN_ANOMALY":"292.9867","MEAN_ELEMENT_THEORY":"SGP4","OBJECT_NAME":"STARLINK-1589","MEAN_MOTION_DDOT":"0.0000000000000","EPHEMERIS_TYPE":"0","ARG_OF_PERICENTER":"67.1290","RA_OF_ASC_NODE":"22.1700","ELEMENT_SET_NO":"999","COUNTRY_CODE":"US","TLE_LINE1":"1 46158U 20057AT  21347.51258075  .00000765  00000-0  70241-4 0  9994","OBJECT_ID":"2020-057AT","GP_ID":"191623743","TIME_SYSTEM":"UTC","MEAN_MOTION_DOT":"0.00000765","EPOCH":"2021-12-13T12:18:06.976800","PERIOD":"95.593","ECCENTRICITY":"0.00015990","CLASSIFICATION_TYPE":"U","PERIAPSIS":"546.128","APOAPSIS":"548.343","INCLINATION":"53.0558","SITE":"AFETR"},{"TLE_LINE2":"2 46159  53.0546  61.3961 0001126  83.9196 276.1921 15.06402186 74150","OBJECT_TYPE":"PAYLOAD","MEAN_MOTION":"15.06402186","RCS_SIZE":"LARGE","REV_AT_EPOCH":"7415","BSTAR":"0.00024497000000","EPHEMERIS_TYPE":"0","RA_OF_ASC_NODE":"61.3961","ARG_OF_PERICENTER":"83.9196","OBJECT_NAME":"STARLINK-1595","MEAN_MOTION_DDOT":"0.0000000000000","MEAN_ANOMALY":"276.1921","MEAN_ELEMENT_THEORY":"SGP4","DECAY_DATE":null,"CENTER_NAME":"EARTH","NORAD_CAT_ID":"46159","FILE":"3239585","REF_FRAME":"TEME","LAUNCH_DATE":"2020-08-18","SEMIMAJOR_AXIS":"6925.342","SITE":"AFETR","INCLINATION":"53.0546","CLASSIFICATION_TYPE":"U","APOAPSIS":"547.987","PERIAPSIS":"546.427","GP_ID":"191657607","OBJECT_ID":"2020-057AU","TIME_SYSTEM":"UTC","COUNTRY_CODE":"US","TLE_LINE1":"1 46159U 20057AU  21347.68581595  .00003370  00000-0  24497-3 0  9995","ELEMENT_SET_NO":"999","ECCENTRICITY":"0.00011260","PERIOD":"95.592","MEAN_MOTION_DOT":"0.00003370","EPOCH":"2021-12-13T16:27:34.498080"},{"ECCENTRICITY":"0.00015260","PERIOD":"95.592","EPOCH":"2021-12-13T21:00:55.227744","MEAN_MOTION_DOT":"0.00001035","TIME_SYSTEM":"UTC","OBJECT_ID":"2020-057AV","GP_ID":"191658359","TLE_LINE1":"1 46160U 20057AV  21347.87563921  .00001035  00000-0  88376-4 0  9994","COUNTRY_CODE":"US","ELEMENT_SET_NO":"999","SITE":"AFETR","INCLINATION":"53.0554","PERIAPSIS":"546.160","APOAPSIS":"548.274","CLASSIFICATION_TYPE":"U","FILE":"3239585","LAUNCH_DATE":"2020-08-18","REF_FRAME":"TEME","SEMIMAJOR_AXIS":"6925.352","DECAY_DATE":null,"CENTER_NAME":"EARTH","NORAD_CAT_ID":"46160","ARG_OF_PERICENTER":"61.2800","RA_OF_ASC_NODE":"40.5349","EPHEMERIS_TYPE":"0","OBJECT_NAME":"STARLINK-1598","MEAN_MOTION_DDOT":"0.0000000000000","MEAN_ANOMALY":"298.8342","MEAN_ELEMENT_THEORY":"SGP4","MEAN_MOTION":"15.06398844","OBJECT_TYPE":"PAYLOAD","TLE_LINE2":"2 46160  53.0554  40.5349 0001526  61.2800 298.8342 15.06398844 74451","RCS_SIZE":"LARGE","REV_AT_EPOCH":"7445","BSTAR":"0.00008837600000"},{"FILE":"3239585","SEMIMAJOR_AXIS":"6925.370","LAUNCH_DATE":"2020-08-18","REF_FRAME":"TEME","DECAY_DATE":null,"NORAD_CAT_ID":"46161","CENTER_NAME":"EARTH","RA_OF_ASC_NODE":"40.6331","ARG_OF_PERICENTER":"71.0189","EPHEMERIS_TYPE":"0","MEAN_ELEMENT_THEORY":"SGP4","MEAN_ANOMALY":"289.0965","MEAN_MOTION_DDOT":"0.0000000000000","OBJECT_NAME":"STARLINK-1600","RCS_SIZE":"LARGE","REV_AT_EPOCH":"7445","MEAN_MOTION":"15.06392934","TLE_LINE2":"2 46161  53.0556  40.6331 0001527  71.0189 289.0965 15.06392934 74453","OBJECT_TYPE":"PAYLOAD","BSTAR":"-0.00004204900000","PERIOD":"95.593","ECCENTRICITY":"0.00015270","EPOCH":"2021-12-13T20:29:05.396352","MEAN_MOTION_DOT":"-0.00000908","TLE_LINE1":"1 46161U 20057AW  21347.85353468 -.00000908  00000-0 -42049-4 0  9993","COUNTRY_CODE":"US","TIME_SYSTEM":"UTC","GP_ID":"191658109","OBJECT_ID":"2020-057AW","ELEMENT_SET_NO":"999","SITE":"AFETR","APOAPSIS":"548.293","PERIAPSIS":"546.178","CLASSIFICATION_TYPE":"U","INCLINATION":"53.0556"}];
